[{"OBJECT_NAME":"VSP RF A1","OBJECT_ID":"2024-043AP","EPOCH":"2026-03-07T00:44:15.345024","MEAN_MOTION":15.26179596,"ECCENTRICITY":0.00094313,"INCLINATION":97.5247,"RA_OF_ASC_NODE":201.5379,"ARG_OF_PERICENTER":234.6315,"MEAN_ANOMALY":125.4042,"EPHEMERIS_TYPE":0,"CLASSIFICATION_TYPE":"U","NORAD_CAT_ID":59135,"ELEMENT_SET_NO":999,"REV_AT_EPOCH":11140,"BSTAR":2.5198753e-5,"MEAN_MOTION_DOT":5.77e-6,"MEAN_MOTION_DDOT":0},{"OBJECT_NAME":"STARLINK-31256","OBJECT_ID":"2024-044K","EPOCH":"2026-03-09T18:49:54.317280","MEAN_MOTION":15.27568251,"ECCENTRICITY":0.00010304,"INCLINATION":43,"RA_OF_ASC_NODE":106.1864,"ARG_OF_PERICENTER":276.2359,"MEAN_ANOMALY":83.8375,"EPHEMERIS_TYPE":0,"CLASSIFICATION_TYPE":"U","NORAD_CAT_ID":59161,"ELEMENT_SET_NO":999,"REV_AT_EPOCH":11361,"BSTAR":2.1629463e-5,"MEAN_MOTION_DOT":3.33e-6,"MEAN_MOTION_DDOT":0}]
